0 ATLAS 5 CENTAUR R/B
1 27500U 02038B   13280.84013638  .00009648  00000-0  19396-2 0  7517
2 27500 018.1825 029.6661 7016753 118.8355 011.1777 02.62496309 88147
0 ATLAS 5 CENTAUR R/B
1 27500U 02038B   13282.33846162  .00011925  00000-0  24304-2 0  7526
2 27500 018.1838 028.9564 7016391 120.1406 347.1522 02.62530707 88181
0 ATLAS 5 CENTAUR R/B
1 27500U 02038B   13283.48949181  .00011893  00000-0  24423-2 0  7535
2 27500 018.1848 028.4131 7016195 121.1418 355.0455 02.62553826 88217
0 ATLAS 5 CENTAUR R/B
1 27500U 02038B   13285.78758845  .00011577  00000-0  23813-2 0  7547
2 27500 018.1873 027.3284 7015833 123.1406 007.3936 02.62603802 88276
0 ATLAS 5 CENTAUR R/B
1 27500U 02038B   13288.43802247  .00013827  00000-0  28430-2 0  7559
2 27500 018.1905 026.0728 7015005 125.4567 353.3194 02.62666626 88346
0 ATLAS 5 CENTAUR R/B
1 27500U 02038B   13289.19694116  .00012009  00000-0  24773-2 0  7565
2 27500 018.1912 025.7135 7014730 126.1188 350.9748 02.62684908 88366
0 ATLAS 5 CENTAUR R/B
1 27500U 02038B   13290.30574162  .00008717  00000-0  16772-2 0  7581
2 27500 018.1901 025.2036 7015846 127.0693 319.5767 02.62712189 88397
0 ATLAS 5 CENTAUR R/B
1 27500U 02038B   13291.48605352  .00010475  00000-0  21925-2 0  7576
2 27500 018.1937 024.6342 7013868 128.1095 355.9173 02.62735185 88429
0 ATLAS 5 CENTAUR R/B
1 27500U 02038B   13293.38655955  .00009474  00000-0  20249-2 0  7587
2 27500 018.1962 023.7373 7013241 129.7589 353.6285 02.62770744 88475
0 ATLAS 5 CENTAUR R/B
1 27500U 02038B   13294.14498455  .00009207  00000-0  19794-2 0  7590
2 27500 018.1968 023.3802 7013123 130.4175 351.0962 02.62782603 88496
0 ATLAS 5 CENTAUR R/B
1 27500U 02038B   13294.62856081  .00008671  00000-0  19054-2 0  7601
2 27500 018.1962 023.1579 7012593 130.8377 088.5454 02.62800958 88501
